ORBCOMM FM06            
1 25118U 97084G   26185.82735214  .00001872  00000+0  54243-3 0  9997
2 25118  45.0146 327.7898 0000643 198.7103 314.2275 14.47611499496947
ORBCOMM FM04            
1 25159U 98007C   26185.81276671  .00001128  00000+0  43100-3 0  9998
2 25159 107.9628 205.6962 0041799 294.5560  65.1227 14.35773903479126
ORBCOMM FM19            
1 25415U 98046C   26185.98332140  .00001259  00000+0  44516-3 0  9995
2 25415  44.9920 158.9666 0003816   0.9460  41.5372 14.39527914459347
ORBCOMM FM20            
1 25416U 98046D   26186.00565870  .00000848  00000+0  32377-3 0  9993
2 25416  44.9918 166.9799 0002210 311.3972  48.6686 14.38089487459359
ORBCOMM FM27            
1 25481U 98053G   26186.16670545  .00001033  00000+0  37593-3 0  9998
2 25481  45.0045 249.9558 0002306 257.1937 102.8654 14.39175284452828
ORBCOMM FM32            
1 25982U 99065C   26186.15583642  .00001045  00000+0  39549-3 0  9994
2 25982  45.0147  88.1849 0004795 140.4253 219.6946 14.37158485389677
ORBCOMM FM109           
1 40086U 14040A   26185.90495356  .00000614  00000+0  16607-3 0  9993
2 40086  47.0042   7.7183 0001836 293.3925  66.6767 14.58865680636930
ORBCOMM FM110           
1 41182U 15081D   26185.56766189  .00001016  00000+0  25086-3 0  9992
2 41182  47.0022 279.2626 0003016 174.8918 185.1999 14.58909708560166
ORBCOMM FM118           
1 41183U 15081E   26185.67047969  .00000581  00000+0  15910-3 0  9994
2 41183  47.0039 279.1114 0002380 131.7741 228.3349 14.58897866560288
ORBCOMM FM112           
1 41184U 15081F   26186.01712583  .00000829  00000+0  21144-3 0  9996
2 41184  46.9970 185.9321 0004106 287.3246  72.7190 14.58926863561557
ORBCOMM FM113           
1 41185U 15081G   26186.06282944  .00000501  00000+0  14214-3 0  9992
2 41185  46.9986 186.1011 0002597 285.4446  74.6153 14.58875114561548
ORBCOMM FM108           
1 41187U 15081J   26186.16197949  .00000917  00000+0  22996-3 0  9992
2 41187  47.0046  97.2108 0003080 286.3598  73.6949 14.58899530562703
ORBCOMM FM117           
1 41188U 15081K   26186.12762714  .00000898  00000+0  22619-3 0  9997
2 41188  47.0010  96.0026 0003541 291.2757  68.7750 14.58887049562746
ORBCOMM FM116           
1 41189U 15081L   26186.03935556  .00000365  00000+0  11324-3 0  9994
2 41189  47.0006 186.2096 0001142 199.7196 160.3646 14.58900291561540
